[{"OBJECT_NAME":"STARLINK-34861","OBJECT_ID":"2025-254W","EPOCH":"2026-03-09T17:31:27.825024","MEAN_MOTION":15.30208665,"ECCENTRICITY":9.28e-5,"INCLINATION":53.1574,"RA_OF_ASC_NODE":229.9647,"ARG_OF_PERICENTER":64.8458,"MEAN_ANOMALY":295.2639,"EPHEMERIS_TYPE":0,"CLASSIFICATION_TYPE":"U","NORAD_CAT_ID":66368,"ELEMENT_SET_NO":999,"REV_AT_EPOCH":1901,"BSTAR":0.0010224097,"MEAN_MOTION_DOT":0.00030052,"MEAN_MOTION_DDOT":0},{"OBJECT_NAME":"COSMOS 2535 DEB","OBJECT_ID":"2019-039M","EPOCH":"2026-03-08T03:25:35.903424","MEAN_MOTION":15.28322551,"ECCENTRICITY":0.0014917,"INCLINATION":97.5619,"RA_OF_ASC_NODE":139.2722,"ARG_OF_PERICENTER":329.0964,"MEAN_ANOMALY":30.9396,"EPHEMERIS_TYPE":0,"CLASSIFICATION_TYPE":"U","NORAD_CAT_ID":44641,"ELEMENT_SET_NO":999,"REV_AT_EPOCH":35167,"BSTAR":0.0011539757,"MEAN_MOTION_DOT":0.0003196,"MEAN_MOTION_DDOT":0}]
